CSS (TIANHE)            
1 48274U 21035A   23226.29543283  .00015047  00000+0  18049-3 0  9998
2 48274  41.4733 162.7086 0007940 151.9717 208.1551 15.60561939130911
